CTC2_L_00093001-01
1 31436U 25132MT  26037.47791667  .00000000  00000+0  00000-0 0  9994
2 31436  90.0000   0.0000 0000000   0.0000   0.0000 15.18623352    15
CTC2_L_00093001-02
1 31437U 25994IU  26037.47791667  .00000000  00000+0  00000-0 0  9991
2 31437  90.0000   0.0000 0000000   0.0000  90.0000 15.18623352    15
CTC2_L_00093001-03
1 31438U 23145BF  26037.47791667  .00000000  00000+0  00000-0 0  9998
2 31438  90.0000   0.0000 0000000   0.0000 180.0000 15.18623352    16
CTC2_L_00093001-04
1 31439U 23091XS  26037.47791667  .00000000  00000+0  00000-0 0  9999
2 31439  90.0000   0.0000 0000000   0.0000 270.0000 15.18623352    17
CTC2_L_00093002-01
1 31440U 25424KN  26037.47791667  .00000000  00000+0  00000-0 0  9993
2 31440  90.0000  12.0000 0000000   0.0000  12.0000 15.18623352    16
CTC2_L_00093002-02
1 31441U 22557TT  26037.47791667  .00000000  00000+0  00000-0 0  9998
2 31441  90.0000  12.0000 0000000   0.0000 102.0000 15.18623352    17
CTC2_L_00093002-03
1 31442U 23737BA  26037.47791667  .00000000  00000+0  00000-0 0  9990
2 31442  90.0000  12.0000 0000000   0.0000 192.0000 15.18623352    17
CTC2_L_00093002-04
1 31443U 26390AB  26037.47791667  .00000000  00000+0  00000-0 0  9999
2 31443  90.0000  12.0000 0000000   0.0000 282.0000 15.18623352    18
CTC2_L_00093003-01
1 31444U 25546QV  26037.47791667  .00000000  00000+0  00000-0 0  9992
2 31444  90.0000  24.0000 0000000   0.0000  24.0000 15.18623352    16
CTC2_L_00093003-02
1 31445U 24650GX  26037.47791667  .00000000  00000+0  00000-0 0  9998
2 31445  90.0000  24.0000 0000000   0.0000 114.0000 15.18623352    17
CTC2_L_00093003-03
1 31446U 24333BY  26037.47791667  .00000000  00000+0  00000-0 0  9997
2 31446  90.0000  24.0000 0000000   0.0000 204.0000 15.18623352    18
CTC2_L_00093003-04
1 31447U 23242ZD  26037.47791667  .00000000  00000+0  00000-0 0  9996
2 31447  90.0000  24.0000 0000000   0.0000 294.0000 15.18623352    18
CTC2_L_00093004-01
1 31448U 26097MV  26037.47791667  .00000000  00000+0  00000-0 0  9998
2 31448  90.0000  36.0000 0000000   0.0000  36.0000 15.18623352    16
CTC2_L_00093004-02
1 31449U 26631CV  26037.47791667  .00000000  00000+0  00000-0 0  9993
2 31449  90.0000  36.0000 0000000   0.0000 126.0000 15.18623352    17
CTC2_L_00093004-03
1 31450U 22155GC  26037.47791667  .00000000  00000+0  00000-0 0  9992
2 31450  90.0000  36.0000 0000000   0.0000 216.0000 15.18623352    19
CTC2_L_00093004-04
1 31451U 23356IK  26037.47791667  .00000000  00000+0  00000-0 0  9997
2 31451  90.0000  36.0000 0000000   0.0000 306.0000 15.18623352    10
CTC2_L_00093005-01
1 31452U 24110MB  26037.47791667  .00000000  00000+0  00000-0 0  9997
2 31452  90.0000  48.0000 0000000   0.0000  48.0000 15.18623352    17
CTC2_L_00093005-02
1 31453U 26338VH  26037.47791667  .00000000  00000+0  00000-0 0  9992
2 31453  90.0000  48.0000 0000000   0.0000 138.0000 15.18623352    18
CTC2_L_00093005-03
1 31454U 25138QG  26037.47791667  .00000000  00000+0  00000-0 0  9990
2 31454  90.0000  48.0000 0000000   0.0000 228.0000 15.18623352    19
CTC2_L_00093005-04
1 31455U 22115JG  26037.47791667  .00000000  00000+0  00000-0 0  9993
2 31455  90.0000  48.0000 0000000   0.0000 318.0000 15.18623352    10
CTC2_L_00093006-01
1 31456U 26124KZ  26037.47791667  .00000000  00000+0  00000-0 0  9998
2 31456  90.0000  60.0000 0000000   0.0000  60.0000 15.18623352    19
CTC2_L_00093006-02
1 31457U 23206EY  26037.47791667  .00000000  00000+0  00000-0 0  9997
2 31457  90.0000  60.0000 0000000   0.0000 150.0000 15.18623352    10
CTC2_L_00093006-03
1 31458U 22221EG  26037.47791667  .00000000  00000+0  00000-0 0  9994
2 31458  90.0000  60.0000 0000000   0.0000 240.0000 15.18623352    11
CTC2_L_00093006-04
1 31459U 24574AJ  26037.47791667  .00000000  00000+0  00000-0 0  9998
2 31459  90.0000  60.0000 0000000   0.0000 330.0000 15.18623352    12
CTC2_L_00093007-01
1 31460U 23116IN  26037.47791667  .00000000  00000+0  00000-0 0  9991
2 31460  90.0000  72.0000 0000000   0.0000  72.0000 15.18623352    10
CTC2_L_00093007-02
1 31461U 24327GO  26037.47791667  .00000000  00000+0  00000-0 0  9997
2 31461  90.0000  72.0000 0000000   0.0000 162.0000 15.18623352    11
CTC2_L_00093007-03
1 31462U 23878ZR  26037.47791667  .00000000  00000+0  00000-0 0  9998
2 31462  90.0000  72.0000 0000000   0.0000 252.0000 15.18623352    12
CTC2_L_00093007-04
1 31463U 23210NS  26037.47791667  .00000000  00000+0  00000-0 0  9999
2 31463  90.0000  72.0000 0000000   0.0000 342.0000 15.18623352    13
CTC2_L_00093008-01
1 31464U 22373PQ  26037.47791667  .00000000  00000+0  00000-0 0  9999
2 31464  90.0000  84.0000 0000000   0.0000  84.0000 15.18623352    10
CTC2_L_00093008-02
1 31465U 23429AA  26037.47791667  .00000000  00000+0  00000-0 0  9993
2 31465  90.0000  84.0000 0000000   0.0000 174.0000 15.18623352    11
CTC2_L_00093008-03
1 31466U 26385EE  26037.47791667  .00000000  00000+0  00000-0 0  9998
2 31466  90.0000  84.0000 0000000   0.0000 264.0000 15.18623352    12
CTC2_L_00093008-04
1 31467U 26326OM  26037.47791667  .00000000  00000+0  00000-0 0  9994
2 31467  90.0000  84.0000 0000000   0.0000 354.0000 15.18623352    13
CTC2_L_00093009-01
1 31468U 26515CM  26037.47791667  .00000000  00000+0  00000-0 0  9995
2 31468  90.0000  96.0000 0000000   0.0000  96.0000 15.18623352    10
CTC2_L_00093009-02
1 31469U 23770KZ  26037.47791667  .00000000  00000+0  00000-0 0  9996
2 31469  90.0000  96.0000 0000000   0.0000 186.0000 15.18623352    11
CTC2_L_00093009-03
1 31470U 25174VF  26037.47791667  .00000000  00000+0  00000-0 0  9998
2 31470  90.0000  96.0000 0000000   0.0000 276.0000 15.18623352    13
CTC2_L_00093009-04
1 31471U 24125UW  26037.47791667  .00000000  00000+0  00000-0 0  9994
2 31471  90.0000  96.0000 0000000   0.0000   6.0000 15.18623352    15
CTC2_L_00093010-01
1 31472U 25062HE  26037.47791667  .00000000  00000+0  00000-0 0  9996
2 31472  90.0000 108.0000 0000000   0.0000 108.0000 15.18623352    13
CTC2_L_00093010-02
1 31473U 25781XT  26037.47791667  .00000000  00000+0  00000-0 0  9995
2 31473  90.0000 108.0000 0000000   0.0000 198.0000 15.18623352    13
CTC2_L_00093010-03
1 31474U 24571EW  26037.47791667  .00000000  00000+0  00000-0 0  9992
2 31474  90.0000 108.0000 0000000   0.0000 288.0000 15.18623352    14
CTC2_L_00093010-04
1 31475U 23752HB  26037.47791667  .00000000  00000+0  00000-0 0  9993
2 31475  90.0000 108.0000 0000000   0.0000  18.0000 15.18623352    16
CTC2_L_00093011-01
1 31476U 23915AG  26037.47791667  .00000000  00000+0  00000-0 0  9995
2 31476  90.0000 120.0000 0000000   0.0000 120.0000 15.18623352    15
CTC2_L_00093011-02
1 31477U 26389YV  26037.47791667  .00000000  00000+0  00000-0 0  9994
2 31477  90.0000 120.0000 0000000   0.0000 210.0000 15.18623352    16
CTC2_L_00093011-03
1 31478U 24198QU  26037.47791667  .00000000  00000+0  00000-0 0  9991
2 31478  90.0000 120.0000 0000000   0.0000 300.0000 15.18623352    17
CTC2_L_00093011-04
1 31479U 24199MF  26037.47791667  .00000000  00000+0  00000-0 0  9993
2 31479  90.0000 120.0000 0000000   0.0000  30.0000 15.18623352    18
CTC2_L_00093012-01
1 31480U 22279LC  26037.47791667  .00000000  00000+0  00000-0 0  9992
2 31480  90.0000 132.0000 0000000   0.0000 132.0000 15.18623352    16
CTC2_L_00093012-02
1 31481U 26197DP  26037.47791667  .00000000  00000+0  00000-0 0  9996
2 31481  90.0000 132.0000 0000000   0.0000 222.0000 15.18623352    17
CTC2_L_00093012-03
1 31482U 25393BG  26037.47791667  .00000000  00000+0  00000-0 0  9994
2 31482  90.0000 132.0000 0000000   0.0000 312.0000 15.18623352    18
CTC2_L_00093012-04
1 31483U 23511WS  26037.47791667  .00000000  00000+0  00000-0 0  9995
2 31483  90.0000 132.0000 0000000   0.0000  42.0000 15.18623352    19
CTC2_L_00093013-01
1 31484U 23073SZ  26037.47791667  .00000000  00000+0  00000-0 0  9999
2 31484  90.0000 144.0000 0000000   0.0000 144.0000 15.18623352    16
CTC2_L_00093013-02
1 31485U 26138TL  26037.47791667  .00000000  00000+0  00000-0 0  9995
2 31485  90.0000 144.0000 0000000   0.0000 234.0000 15.18623352    17
CTC2_L_00093013-03
1 31486U 23203GM  26037.47791667  .00000000  00000+0  00000-0 0  9996
2 31486  90.0000 144.0000 0000000   0.0000 324.0000 15.18623352    18
CTC2_L_00093013-04
1 31487U 23107FF  26037.47791667  .00000000  00000+0  00000-0 0  9990
2 31487  90.0000 144.0000 0000000   0.0000  54.0000 15.18623352    19
CTC2_L_00093014-01
1 31488U 26087FZ  26037.47791667  .00000000  00000+0  00000-0 0  9991
2 31488  90.0000 156.0000 0000000   0.0000 156.0000 15.18623352    16
CTC2_L_00093014-02
1 31489U 22073GZ  26037.47791667  .00000000  00000+0  00000-0 0  9993
2 31489  90.0000 156.0000 0000000   0.0000 246.0000 15.18623352    17
CTC2_L_00093014-03
1 31490U 25948LJ  26037.47791667  .00000000  00000+0  00000-0 0  9999
2 31490  90.0000 156.0000 0000000   0.0000 336.0000 15.18623352    19
CTC2_L_00093014-04
1 31491U 24063IV  26037.47791667  .00000000  00000+0  00000-0 0  9997
2 31491  90.0000 156.0000 0000000   0.0000  66.0000 15.18623352    10
CTC2_L_00093015-01
1 31492U 26232CD  26037.47791667  .00000000  00000+0  00000-0 0  9998
2 31492  90.0000 168.0000 0000000   0.0000 168.0000 15.18623352    17
CTC2_L_00093015-02
1 31493U 26159AP  26037.47791667  .00000000  00000+0  00000-0 0  9997
2 31493  90.0000 168.0000 0000000   0.0000 258.0000 15.18623352    18
CTC2_L_00093015-03
1 31494U 25242RA  26037.47791667  .00000000  00000+0  00000-0 0  9990
2 31494  90.0000 168.0000 0000000   0.0000 348.0000 15.18623352    19
CTC2_L_00093015-04
1 31495U 26455AU  26037.47791667  .00000000  00000+0  00000-0 0  9998
2 31495  90.0000 168.0000 0000000   0.0000  78.0000 15.18623352    10
CTC2_L_00093016-01
1 31496U 25204VT  26037.47791667  .00000000  00000+0  00000-0 0  9990
2 31496  90.0000 180.0000 0000000   0.0000 180.0000 15.18623352    19
CTC2_L_00093016-02
1 31497U 22822WE  26037.47791667  .00000000  00000+0  00000-0 0  9994
2 31497  90.0000 180.0000 0000000   0.0000 270.0000 15.18623352    10
